     2              NAVIGATION DATA                         RINEX VERSION / TYPE
CCRINEXN V1.6.0 UX  CDDIS               09-APR-19 09:53     PGM / RUN BY / DATE 
IGS BROADCAST EPHEMERIS FILE                                COMMENT             
    0.1118D-07  0.1490D-07 -0.5960D-07 -0.5960D-07          ION ALPHA           
    0.8806D+05  0.1638D+05 -0.1966D+06 -0.1311D+06          ION BETA            
   -0.558793544769D-08-0.142108547152D-13   405504     2048 DELTA-UTC: A0,A1,T,W
    18                                                      LEAP SECONDS        
                                                            END OF HEADER       
29 19  4  9 14  0  0.0 0.229554250836D-03-0.898126018001D-11 0.000000000000D+00
    0.178000000000D+03-0.104406250000D+03 0.387694720771D-08-0.794534818261D+00
   -0.542216002941D-05 0.901407096535D-03 0.737980008125D-05 0.515377377510D+04
    0.223200000000D+06 0.316649675369D-07-0.309080004864D+01 0.763684511185D-07
    0.985756668859D+00 0.250093750000D+03 0.158526976826D+01-0.786818521448D-08
   -0.265368199637D-09 0.100000000000D+01 0.204800000000D+04 0.000000000000D+00
    0.200000000000D+01 0.000000000000D+00-0.102445483208D-07 0.178000000000D+03
    0.216030000000D+06 0.000000000000D+00 0.000000000000D+00 0.000000000000D+00
30 19  4  9 14  0  0.0-0.834274105728D-04-0.682121026330D-11 0.000000000000D+00
    0.170000000000D+02 0.100468750000D+03 0.498306470750D-08 0.202578533533D+01
    0.533461570740D-05 0.385845708661D-02 0.879913568497D-05 0.515361231422D+04
    0.223200000000D+06-0.372529029846D-07 0.107734424540D+01 0.111758708954D-06
    0.941344363137D+00 0.202625000000D+03-0.300851813350D+01-0.828427364468D-08
    0.585738684082D-10 0.100000000000D+01 0.204800000000D+04 0.000000000000D+00
    0.200000000000D+01 0.000000000000D+00 0.372529029846D-08 0.170000000000D+02
    0.216018000000D+06 0.400000000000D+01 0.000000000000D+00 0.000000000000D+00
31 19  4  9 14  0  0.0 0.462648458779D-04-0.261479726760D-11 0.000000000000D+00
    0.550000000000D+02 0.963437500000D+02 0.445661418880D-08 0.162201203984D+01
    0.532902777195D-05 0.920596707147D-02 0.101234763861D-04 0.515359920502D+04
    0.223200000000D+06 0.335276126862D-07 0.106231730889D+01 0.135973095894D-06
    0.960439121847D+00 0.182000000000D+03-0.208901775883D-03-0.802533417499D-08
   -0.101432799660D-09 0.100000000000D+01 0.204800000000D+04 0.000000000000D+00
    0.200000000000D+01 0.000000000000D+00-0.135041773319D-07 0.550000000000D+02
    0.216030000000D+06 0.000000000000D+00 0.000000000000D+00 0.000000000000D+00
32 19  4  9 14  0  0.0-0.140670221299D-03 0.178488335223D-10 0.000000000000D+00
    0.210000000000D+02-0.165937500000D+02 0.482020068304D-08-0.827493577000D+00
   -0.812113285065D-06 0.284135795664D-02 0.903941690922D-05 0.515376832390D+04
    0.223200000000D+06 0.186264514923D-07-0.210206567147D-01 0.447034835815D-07
    0.957219620977D+00 0.202968750000D+03-0.256322428099D+01-0.807819322546D-08
   -0.392159194007D-09 0.100000000000D+01 0.204800000000D+04 0.000000000000D+00
    0.200000000000D+01 0.100000000000D+01 0.465661287308D-09 0.210000000000D+02
    0.216510000000D+06 0.000000000000D+00 0.000000000000D+00 0.000000000000D+00
